start=new Date('2021-09-26T00:00:00.000Z').valueOf();
sats=[{"DECAY_DATE":null,"RCS_SIZE":"LARGE","TLE_LINE2":"2 49180  69.9998  93.4315 0008317 229.7706 310.5489 15.76529450  2197","REF_FRAME":"TEME","MEAN_ELEMENT_THEORY":"SGP4","SEMIMAJOR_AXIS":"6718.419","NORAD_CAT_ID":"49180","BSTAR":"-0.00773760000000","MEAN_MOTION":"15.76529450","ARG_OF_PERICENTER":"229.7706","RA_OF_ASC_NODE":"93.4315","MEAN_ANOMALY":"310.5489","PERIOD":"91.340","COUNTRY_CODE":"US","EPHEMERIS_TYPE":"0","TLE_LINE1":"1 49180U 21082BC  21269.00001157 -.01109797  00000-0 -77376-2 0  9997","ECCENTRICITY":"0.00083170","PERIAPSIS":"334.697","OBJECT_NAME":"STARLINK-3050","OBJECT_ID":"2021-082BC","OBJECT_TYPE":"PAYLOAD","TIME_SYSTEM":"UTC","LAUNCH_DATE":"2021-09-14","SITE":"AFWTR","INCLINATION":"69.9998","REV_AT_EPOCH":"219","CLASSIFICATION_TYPE":"U","EPOCH":"2021-09-26T00:00:00.999648","FILE":"3128274","APOAPSIS":"345.872","MEAN_MOTION_DDOT":"0.0000000000000","GP_ID":"185508643","ELEMENT_SET_NO":"999","CENTER_NAME":"EARTH","MEAN_MOTION_DOT":"-0.01109797"},{"MEAN_ELEMENT_THEORY":"SGP4","REF_FRAME":"TEME","NORAD_CAT_ID":"49181","SEMIMAJOR_AXIS":"6718.292","BSTAR":"-0.00772350000000","ARG_OF_PERICENTER":"229.6103","MEAN_MOTION":"15.76574438","RCS_SIZE":"MEDIUM","DECAY_DATE":null,"TLE_LINE2":"2 49181  69.9998  93.4296 0008197 229.6103 312.3808 15.76574438  2193","TLE_LINE1":"1 49181U 21082BD  21269.00001157 -.01109865  00000-0 -77235-2 0  9998","PERIAPSIS":"334.650","OBJECT_NAME":"STARLINK-3059","ECCENTRICITY":"0.00081970","COUNTRY_CODE":"US","EPHEMERIS_TYPE":"0","OBJECT_ID":"2021-082BD","OBJECT_TYPE":"PAYLOAD","MEAN_ANOMALY":"312.3808","RA_OF_ASC_NODE":"93.4296","PERIOD":"91.337","REV_AT_EPOCH":"219","EPOCH":"2021-09-26T00:00:00.999648","FILE":"3128274","APOAPSIS":"345.664","CLASSIFICATION_TYPE":"U","LAUNCH_DATE":"2021-09-14","TIME_SYSTEM":"UTC","SITE":"AFWTR","INCLINATION":"69.9998","ELEMENT_SET_NO":"999","CENTER_NAME":"EARTH","MEAN_MOTION_DOT":"-0.01109865","GP_ID":"185507888","MEAN_MOTION_DDOT":"0.0000000000000"}];
